HAWK-11C                
1 62381U 24247E   26068.51221537  .00009223  00000+0  33290-3 0  9992
2 62381  45.0045 114.8762 0005900 329.7040  30.3502 15.28848020 67743
STARLINK-33843          
1 63507U 25071Q   26068.51866243  .00033475  00000+0  11376-2 0  9994
2 63507  53.1604 140.6904 0001371  71.6545 288.4605 15.30190705 52726
